[{"OBJECT_NAME":"STARLINK-5728","OBJECT_ID":"2023-020V","EPOCH":"2026-03-09T22:00:01.999584","MEAN_MOTION":15.12999401,"ECCENTRICITY":0.00012068,"INCLINATION":43.0006,"RA_OF_ASC_NODE":2.7584,"ARG_OF_PERICENTER":279.492,"MEAN_ANOMALY":348.9005,"EPHEMERIS_TYPE":0,"CLASSIFICATION_TYPE":"U","NORAD_CAT_ID":55588,"ELEMENT_SET_NO":999,"REV_AT_EPOCH":573,"BSTAR":0.026730069,"MEAN_MOTION_DOT":0.00510293,"MEAN_MOTION_DDOT":0},{"OBJECT_NAME":"TABLETSAT-AURORA","OBJECT_ID":"2014-033H","EPOCH":"2026-03-09T22:49:06.914208","MEAN_MOTION":15.16184908,"ECCENTRICITY":0.00118478,"INCLINATION":98.0327,"RA_OF_ASC_NODE":137.2566,"ARG_OF_PERICENTER":188.6042,"MEAN_ANOMALY":171.4988,"EPHEMERIS_TYPE":0,"CLASSIFICATION_TYPE":"U","NORAD_CAT_ID":40017,"ELEMENT_SET_NO":999,"REV_AT_EPOCH":64016,"BSTAR":6.1648456e-5,"MEAN_MOTION_DOT":1.116e-5,"MEAN_MOTION_DDOT":0}]
